CCSDS_OMM_VERS = 2.0
CREATION_DATE  = 
ORIGINATOR     = 

OBJECT_NAME    = ATLAS CENTAUR R/B
OBJECT_ID      = 1972-065B
CENTER_NAME    = EARTH
REF_FRAME      = TEME
TIME_SYSTEM    = UTC
MEAN_ELEMENT_THEORY = SGP/SGP4

EPOCH          = 2025-12-03T12:52:20.685792
MEAN_MOTION    = 14.77366728
ECCENTRICITY   = .00345923
INCLINATION    = 34.9999
RA_OF_ASC_NODE = 149.1082
ARG_OF_PERICENTER = 281.3554
MEAN_ANOMALY   = 78.3261

EPHEMERIS_TYPE = 0
CLASSIFICATION_TYPE = U
NORAD_CAT_ID   = 6155
ELEMENT_SET_NO = 999
REV_AT_EPOCH   = 82703
BSTAR          = .24542621E-3
MEAN_MOTION_DOT = .1768E-4
MEAN_MOTION_DDOT = 0

CCSDS_OMM_VERS = 2.0
CREATION_DATE  = 
ORIGINATOR     = 

OBJECT_NAME    = SL-8 R/B
OBJECT_ID      = 1975-112B
CENTER_NAME    = EARTH
REF_FRAME      = TEME
TIME_SYSTEM    = UTC
MEAN_ELEMENT_THEORY = SGP/SGP4

EPOCH          = 2025-12-04T01:34:38.498304
MEAN_MOTION    = 14.38136750
ECCENTRICITY   = .0016464
INCLINATION    = 74.0596
RA_OF_ASC_NODE = 194.8126
ARG_OF_PERICENTER = 307.0944
MEAN_ANOMALY   = 52.8704

EPHEMERIS_TYPE = 0
CLASSIFICATION_TYPE = U
NORAD_CAT_ID   = 8459
ELEMENT_SET_NO = 999
REV_AT_EPOCH   = 61812
BSTAR          = .18331E-3
MEAN_MOTION_DOT = .53E-5
MEAN_MOTION_DDOT = 0

CCSDS_OMM_VERS = 2.0
CREATION_DATE  = 
ORIGINATOR     = 

OBJECT_NAME    = SL-3 R/B
OBJECT_ID      = 1977-057B
CENTER_NAME    = EARTH
REF_FRAME      = TEME
TIME_SYSTEM    = UTC
MEAN_ELEMENT_THEORY = SGP/SGP4

EPOCH          = 2025-12-04T03:06:47.529792
MEAN_MOTION    = 15.42632697
ECCENTRICITY   = .0006422
INCLINATION    = 97.5676
RA_OF_ASC_NODE = 141.1243
ARG_OF_PERICENTER = 268.9815
MEAN_ANOMALY   = 91.0696

EPHEMERIS_TYPE = 0
CLASSIFICATION_TYPE = U
NORAD_CAT_ID   = 10114
ELEMENT_SET_NO = 999
REV_AT_EPOCH   = 65358
BSTAR          = .50941E-3
MEAN_MOTION_DOT = .22136E-3
MEAN_MOTION_DDOT = 0

CCSDS_OMM_VERS = 2.0
CREATION_DATE  = 
ORIGINATOR     = 

OBJECT_NAME    = SEASAT 1
OBJECT_ID      = 1978-064A
CENTER_NAME    = EARTH
REF_FRAME      = TEME
TIME_SYSTEM    = UTC
MEAN_ELEMENT_THEORY = SGP/SGP4

EPOCH          = 2025-12-04T02:30:11.969280
MEAN_MOTION    = 14.46046535
ECCENTRICITY   = .0001855
INCLINATION    = 108.0100
RA_OF_ASC_NODE = 284.9178
ARG_OF_PERICENTER = 250.1259
MEAN_ANOMALY   = 109.9687

EPHEMERIS_TYPE = 0
CLASSIFICATION_TYPE = U
NORAD_CAT_ID   = 10967
ELEMENT_SET_NO = 999
REV_AT_EPOCH   = 49269
BSTAR          = .29842E-3
MEAN_MOTION_DOT = .929E-5
MEAN_MOTION_DDOT = 0

CCSDS_OMM_VERS = 2.0
CREATION_DATE  = 
ORIGINATOR     = 

OBJECT_NAME    = SL-14 R/B
OBJECT_ID      = 1979-011B
CENTER_NAME    = EARTH
REF_FRAME      = TEME
TIME_SYSTEM    = UTC
MEAN_ELEMENT_THEORY = SGP/SGP4

EPOCH          = 2025-12-04T01:38:04.161408
MEAN_MOTION    = 14.91754107
ECCENTRICITY   = .0016682
INCLINATION    = 82.5242
RA_OF_ASC_NODE = 187.2682
ARG_OF_PERICENTER = 21.9421
MEAN_ANOMALY   = 338.2509

EPHEMERIS_TYPE = 0
CLASSIFICATION_TYPE = U
NORAD_CAT_ID   = 11267
ELEMENT_SET_NO = 999
REV_AT_EPOCH   = 51452
BSTAR          = .10009E-3
MEAN_MOTION_DOT = .1036E-4
MEAN_MOTION_DDOT = 0

CCSDS_OMM_VERS = 2.0
CREATION_DATE  = 
ORIGINATOR     = 

OBJECT_NAME    = SL-8 R/B
OBJECT_ID      = 1979-089B
CENTER_NAME    = EARTH
REF_FRAME      = TEME
TIME_SYSTEM    = UTC
MEAN_ELEMENT_THEORY = SGP/SGP4

EPOCH          = 2025-12-04T02:19:03.604800
MEAN_MOTION    = 14.42274316
ECCENTRICITY   = .001446
INCLINATION    = 74.0691
RA_OF_ASC_NODE = 267.9754
ARG_OF_PERICENTER = 106.1112
MEAN_ANOMALY   = 254.1638

EPHEMERIS_TYPE = 0
CLASSIFICATION_TYPE = U
NORAD_CAT_ID   = 11574
ELEMENT_SET_NO = 999
REV_AT_EPOCH   = 42232
BSTAR          = .19231E-3
MEAN_MOTION_DOT = .609E-5
MEAN_MOTION_DDOT = 0

CCSDS_OMM_VERS = 2.0
CREATION_DATE  = 
ORIGINATOR     = 

OBJECT_NAME    = SL-14 R/B
OBJECT_ID      = 1980-005B
CENTER_NAME    = EARTH
REF_FRAME      = TEME
TIME_SYSTEM    = UTC
MEAN_ELEMENT_THEORY = SGP/SGP4

EPOCH          = 2025-12-04T03:39:46.704960
MEAN_MOTION    = 14.90776310
ECCENTRICITY   = .0017144
INCLINATION    = 82.5155
RA_OF_ASC_NODE = 37.8428
ARG_OF_PERICENTER = 119.6483
MEAN_ANOMALY   = 240.6446

EPHEMERIS_TYPE = 0
CLASSIFICATION_TYPE = U
NORAD_CAT_ID   = 11672
ELEMENT_SET_NO = 999
REV_AT_EPOCH   = 46225
BSTAR          = .11541E-3
MEAN_MOTION_DOT = .1162E-4
MEAN_MOTION_DDOT = 0

CCSDS_OMM_VERS = 2.0
CREATION_DATE  = 
ORIGINATOR     = 

OBJECT_NAME    = SL-8 R/B
OBJECT_ID      = 1981-003B
CENTER_NAME    = EARTH
REF_FRAME      = TEME
TIME_SYSTEM    = UTC
MEAN_ELEMENT_THEORY = SGP/SGP4

EPOCH          = 2025-12-04T02:30:44.275104
MEAN_MOTION    = 15.06643938
ECCENTRICITY   = .0280833
INCLINATION    = 82.9293
RA_OF_ASC_NODE = 18.1510
ARG_OF_PERICENTER = 150.0126
MEAN_ANOMALY   = 211.7533

EPHEMERIS_TYPE = 0
CLASSIFICATION_TYPE = U
NORAD_CAT_ID   = 12139
ELEMENT_SET_NO = 999
REV_AT_EPOCH   = 30026
BSTAR          = .86891E-3
MEAN_MOTION_DOT = .3256E-3
MEAN_MOTION_DDOT = 0

CCSDS_OMM_VERS = 2.0
CREATION_DATE  = 
ORIGINATOR     = 

OBJECT_NAME    = SL-3 R/B
OBJECT_ID      = 1981-046B
CENTER_NAME    = EARTH
REF_FRAME      = TEME
TIME_SYSTEM    = UTC
MEAN_ELEMENT_THEORY = SGP/SGP4

EPOCH          = 2025-12-04T04:18:44.981856
MEAN_MOTION    = 15.39339225
ECCENTRICITY   = .0019519
INCLINATION    = 81.2344
RA_OF_ASC_NODE = 44.1760
ARG_OF_PERICENTER = 354.4884
MEAN_ANOMALY   = 5.6139

EPHEMERIS_TYPE = 0
CLASSIFICATION_TYPE = U
NORAD_CAT_ID   = 12465
ELEMENT_SET_NO = 999
REV_AT_EPOCH   = 42372
BSTAR          = .52856E-3
MEAN_MOTION_DOT = .20826E-3
MEAN_MOTION_DDOT = 0

CCSDS_OMM_VERS = 2.0
CREATION_DATE  = 
ORIGINATOR     = 

OBJECT_NAME    = SL-3 R/B
OBJECT_ID      = 1981-103B
CENTER_NAME    = EARTH
REF_FRAME      = TEME
TIME_SYSTEM    = UTC
MEAN_ELEMENT_THEORY = SGP/SGP4

EPOCH          = 2025-12-04T02:28:18.573600
MEAN_MOTION    = 15.20070687
ECCENTRICITY   = .0011312
INCLINATION    = 81.1584
RA_OF_ASC_NODE = 325.4686
ARG_OF_PERICENTER = 246.5352
MEAN_ANOMALY   = 113.4690

EPHEMERIS_TYPE = 0
CLASSIFICATION_TYPE = U
NORAD_CAT_ID   = 12904
ELEMENT_SET_NO = 999
REV_AT_EPOCH   = 95870
BSTAR          = .5731E-3
MEAN_MOTION_DOT = .12419E-3
MEAN_MOTION_DDOT = 0

CCSDS_OMM_VERS = 2.0
CREATION_DATE  = 
ORIGINATOR     = 

OBJECT_NAME    = SL-3 R/B
OBJECT_ID      = 1982-013B
CENTER_NAME    = EARTH
REF_FRAME      = TEME
TIME_SYSTEM    = UTC
MEAN_ELEMENT_THEORY = SGP/SGP4

EPOCH          = 2025-12-04T03:46:09.452640
MEAN_MOTION    = 15.20962572
ECCENTRICITY   = .0023678
INCLINATION    = 81.1754
RA_OF_ASC_NODE = 272.6536
ARG_OF_PERICENTER = 138.4307
MEAN_ANOMALY   = 221.8731

EPHEMERIS_TYPE = 0
CLASSIFICATION_TYPE = U
NORAD_CAT_ID   = 13068
ELEMENT_SET_NO = 999
REV_AT_EPOCH   = 38982
BSTAR          = .44095E-3
MEAN_MOTION_DOT = .9868E-4
MEAN_MOTION_DDOT = 0

CCSDS_OMM_VERS = 2.0
CREATION_DATE  = 
ORIGINATOR     = 

OBJECT_NAME    = SL-3 R/B
OBJECT_ID      = 1982-039B
CENTER_NAME    = EARTH
REF_FRAME      = TEME
TIME_SYSTEM    = UTC
MEAN_ELEMENT_THEORY = SGP/SGP4

EPOCH          = 2025-12-04T02:06:54.096768
MEAN_MOTION    = 15.09442711
ECCENTRICITY   = .0030271
INCLINATION    = 81.1727
RA_OF_ASC_NODE = 326.0493
ARG_OF_PERICENTER = 281.6741
MEAN_ANOMALY   = 78.1087

EPHEMERIS_TYPE = 0
CLASSIFICATION_TYPE = U
NORAD_CAT_ID   = 13154
ELEMENT_SET_NO = 999
REV_AT_EPOCH   = 36721
BSTAR          = .38835E-3
MEAN_MOTION_DOT = .6302E-4
MEAN_MOTION_DDOT = 0

