ATLAS CENTAUR R/B       
1 06155U 72065B   25337.53635053  .00001768  00000+0  24543-3 0  9999
2 06155  34.9999 149.1082 0034592 281.3554  78.3261 14.77366728827036
SL-8 R/B                
1 08459U 75112B   25338.06572336  .00000530  00000+0  18331-3 0  9991
2 08459  74.0596 194.8126 0016464 307.0944  52.8704 14.38136750618120
SL-3 R/B                
1 10114U 77057B   25338.12971678  .00022136  00000+0  50941-3 0  9990
2 10114  97.5676 141.1243 0006422 268.9815  91.0696 15.42632697653581
SEASAT 1                
1 10967U 78064A   25338.10430520  .00000929  00000+0  29842-3 0  9991
2 10967 108.0100 284.9178 0001855 250.1259 109.9687 14.46046535492695
SL-14 R/B               
1 11267U 79011B   25338.06810372  .00001036  00000+0  10009-3 0  9995
2 11267  82.5242 187.2682 0016682  21.9421 338.2509 14.91754107514524
SL-8 R/B                
1 11574U 79089B   25338.09656950  .00000609  00000+0  19231-3 0  9995
2 11574  74.0691 267.9754 0014460 106.1112 254.1638 14.42274316422320
SL-14 R/B               
1 11672U 80005B   25338.15262390  .00001162  00000+0  11541-3 0  9993
2 11672  82.5155  37.8428 0017144 119.6483 240.6446 14.90776310462259
SL-8 R/B                
1 12139U 81003B   25338.10467911  .00032560  00000+0  86891-3 0  9998
2 12139  82.9293  18.1510 0280833 150.0126 211.7533 15.06643938300264
SL-3 R/B                
1 12465U 81046B   25338.17968729  .00020826  00000+0  52856-3 0  9993
2 12465  81.2344  44.1760 0019519 354.4884   5.6139 15.39339225423729
SL-3 R/B                
1 12904U 81103B   25338.10299275  .00012419  00000+0  57310-3 0  9990
2 12904  81.1584 325.4686 0011312 246.5352 113.4690 15.20070687958703
SL-3 R/B                
1 13068U 82013B   25338.15705385  .00009868  00000+0  44095-3 0  9992
2 13068  81.1754 272.6536 0023678 138.4307 221.8731 15.20962572389822
SL-3 R/B                
1 13154U 82039B   25338.08812612  .00006302  00000+0  38835-3 0  9995
2 13154  81.1727 326.0493 0030271 281.6741  78.1087 15.09442711367215
